NORAD_CAT_ID,OBJECT_NAME,OBJECT_TYPE,EPOCH,MEAN_MOTION,ECCENTRICITY,INCLINATION,RA_OF_ASC_NODE,ARG_OF_PERICENTER,MEAN_ANOMALY,BSTAR,MEAN_MOTION_DOT,MEAN_MOTION_DDOT,TLE_LINE0,TLE_LINE1,TLE_LINE2,SEMIMAJOR_AXIS,PERIOD,APOGEE,PERIGEE,DECAYED
52347.0,STARLINK-3826,PAYLOAD,2023-04-25 14:00:01,15.08853299,0.0001677,53.2155,228.7496,47.7058,172.6976,-0.0035171,-0.0005585,0.0,0 STARLINK-3826,1 52347U 22045S   23115.58335648 -.00055850  00000-0 -35171-2 0  9992,2 52347  53.2155 228.7496 0001677  47.7058 172.6976 15.08853299 57396,6917.84,95.437,540.865,538.545,0.0
52347.0,STARLINK-3826,PAYLOAD,2023-04-26 11:17:05,15.08825961,0.0001555,53.2173,224.7695,64.7967,295.3186,-0.00012866,-2.334e-05,0.0,0 STARLINK-3826,1 52347U 22045S   23116.47020449 -.00002334  00000-0 -12866-3 0  9997,2 52347  53.2173 224.7695 0001555  64.7967 295.3186 15.08825961 57533,6917.923,95.438,540.864,538.713,0.0
52347.0,STARLINK-3826,PAYLOAD,2023-04-26 16:03:15,15.08827856,0.0001764,53.2152,223.8769,62.9969,297.1203,4.5224e-05,4.32e-06,0.0,0 STARLINK-3826,1 52347U 22045S   23116.66892694  .00000432  00000-0  45224-4 0  9997,2 52347  53.2152 223.8769 0001764  62.9969 297.1203 15.08827856 57564,6917.918,95.438,541.003,538.562,0.0
52347.0,STARLINK-3826,PAYLOAD,2023-04-27 00:00:10,15.08850286,0.000157,53.2157,222.3897,48.4358,311.6769,-0.00013892,-2.499e-05,0.0,0 STARLINK-3826,1 52347U 22045S   23117.00011707 -.00002499  00000-0 -13892-3 0  9996,2 52347  53.2157 222.3897 0001570  48.4358 311.6769 15.08850286 57619,6917.849,95.437,540.8,538.628,0.0
52347.0,STARLINK-3826,PAYLOAD,2023-04-27 11:07:52,15.08865554,0.0001684,53.215,220.3078,49.1066,311.0071,0.0011435,0.0001797,0.0,0 STARLINK-3826,1 52347U 22045S   23117.46380430  .00017970  00000-0  11435-2 0  9996,2 52347  53.2150 220.3078 0001684  49.1066 311.0071 15.08865554 57682,6917.802,95.436,540.832,538.502,0.0
52347.0,STARLINK-3826,PAYLOAD,2023-04-27 19:04:47,15.08894725,0.0001806,53.2144,218.8207,45.4903,314.6237,0.0017729,0.00028083,0.0,0 STARLINK-3826,1 52347U 22045S   23117.79499365  .00028083  00000-0  17729-2 0  9999,2 52347  53.2144 218.8207 0001806  45.4903 314.6237 15.08894725 57737,6917.713,95.434,540.827,538.329,0.0
52347.0,STARLINK-3826,PAYLOAD,2023-04-28 06:12:29,15.08859357,0.000161,53.2144,216.7392,54.6628,305.4515,0.00052112,8.02e-05,0.0,0 STARLINK-3826,1 52347U 22045S   23118.25867374  .00008020  00000-0  52112-3 0  9995,2 52347  53.2144 216.7392 0001610  54.6628 305.4515 15.08859357 57805,6917.821,95.436,540.8,538.572,0.0
52347.0,STARLINK-3826,PAYLOAD,2023-04-28 12:34:01,15.0886141,0.0001592,53.2143,215.55,53.6165,306.4974,0.0011765,0.00018497,0.0,0 STARLINK-3826,1 52347U 22045S   23118.52363105  .00018497  00000-0  11765-2 0  9995,2 52347  53.2143 215.5500 0001592  53.6165 306.4974 15.08861410 57843,6917.815,95.436,540.781,538.579,0.0
52347.0,STARLINK-3826,PAYLOAD,2023-04-28 23:41:43,15.08847124,0.0002559,53.2159,213.4704,62.4053,297.7199,0.0010521,0.00016499,0.0,0 STARLINK-3826,1 52347U 22045S   23118.98731448  .00016499  00000-0  10521-2 0  9993,2 52347  53.2159 213.4704 0002559  62.4053 297.7199 15.08847124 57916,6917.859,95.437,541.494,537.953,0.0
52347.0,STARLINK-3826,PAYLOAD,2023-04-29 12:24:48,15.08841351,0.0001526,53.2143,211.0901,55.4126,304.701,0.0012554,0.00019749,0.0,0 STARLINK-3826,1 52347U 22045S   23119.51723363  .00019749  00000-0  12554-2 0  9999,2 52347  53.2143 211.0901 0001526  55.4126 304.7010 15.08841351 57993,6917.876,95.437,540.797,538.686,0.0
52347.0,STARLINK-3826,PAYLOAD,2023-04-29 15:35:35,15.08845431,0.0001506,53.2145,210.4945,56.9736,303.1401,0.0015354,0.00024236,0.0,0 STARLINK-3826,1 52347U 22045S   23119.64971318  .00024236  00000-0  15354-2 0  9996,2 52347  53.2145 210.4945 0001506  56.9736 303.1401 15.08845431 58011,6917.864,95.437,540.771,538.687,0.0
52347.0,STARLINK-3826,PAYLOAD,2023-04-30 12:15:36,15.08851222,0.00013,53.2148,206.6284,66.6424,293.4704,0.0012511,0.00019685,0.0,0 STARLINK-3826,1 52347U 22045S   23120.51083430  .00019685  00000-0  12511-2 0  9997,2 52347  53.2148 206.6284 0001300  66.6424 293.4704 15.08851222 58147,6917.846,95.437,540.61,538.812,0.0
52347.0,STARLINK-3826,PAYLOAD,2023-05-01 12:06:23,15.08837127,0.0001499,53.2163,202.1678,79.5061,280.61,9.3119e-05,1.194e-05,0.0,0 STARLINK-3826,1 52347U 22045S   23121.50443790  .00001194  00000-0  93119-4 0  9997,2 52347  53.2163 202.1678 0001499  79.5061 280.6100 15.08837127 58293,6917.889,95.438,540.791,538.717,0.0
52347.0,STARLINK-3826,PAYLOAD,2023-05-01 15:17:09,15.08838762,0.0001465,53.2158,201.572,79.163,280.9527,0.00010546,1.391e-05,0.0,0 STARLINK-3826,1 52347U 22045S   23121.63691744  .00001391  00000-0  10546-3 0  9996,2 52347  53.2158 201.5720 0001465  79.1630 280.9527 15.08838762 58314,6917.884,95.438,540.763,538.736,0.0
52347.0,STARLINK-3826,PAYLOAD,2023-05-02 10:21:47,15.08846293,0.0001448,53.2158,198.0048,76.3777,283.7376,0.00019676,2.845e-05,0.0,0 STARLINK-3826,1 52347U 22045S   23122.43179410  .00002845  00000-0  19676-3 0  9994,2 52347  53.2158 198.0048 0001448  76.3777 283.7376 15.08846293 58433,6917.861,95.437,540.728,538.724,0.0
52347.0,STARLINK-3826,PAYLOAD,2023-05-02 15:07:56,15.0885239,0.000148,53.2159,197.1129,73.4441,286.6714,0.00026526,3.938e-05,0.0,0 STARLINK-3826,1 52347U 22045S   23122.63051027  .00003938  00000-0  26526-3 0  9995,2 52347  53.2159 197.1129 0001480  73.4441 286.6714 15.08852390 58462,6917.843,95.437,540.731,538.684,0.0
52347.0,STARLINK-3826,PAYLOAD,2023-05-03 05:26:25,15.08834706,0.000137,53.2158,194.4368,76.4106,283.7039,7.0732e-06,-1.75e-06,0.0,0 STARLINK-3826,1 52347U 22045S   23123.22667951 -.00000175  00000-0  70732-5 0  9991,2 52347  53.2158 194.4368 0001370  76.4106 283.7039 15.08834706 58554,6917.897,95.438,540.709,538.814,0.0
52347.0,STARLINK-3826,PAYLOAD,2023-05-03 11:47:57,15.08838865,0.0001305,53.2155,193.2474,77.6996,282.4142,7.0361e-05,8.32e-06,0.0,0 STARLINK-3826,1 52347U 22045S   23123.49163821  .00000832  00000-0  70361-4 0  9993,2 52347  53.2155 193.2474 0001305  77.6996 282.4142 15.08838865 58599,6917.884,95.438,540.652,538.846,0.0
52347.0,STARLINK-3826,PAYLOAD,2023-05-03 14:58:43,15.08840209,0.0001339,53.2158,192.6526,78.0655,282.0487,6.2663e-05,7.1e-06,0.0,0 STARLINK-3826,1 52347U 22045S   23123.62411682  .00000710  00000-0  62663-4 0  9990,2 52347  53.2158 192.6526 0001339  78.0655 282.0487 15.08840209 58613,6917.88,95.438,540.671,538.818,0.0
52347.0,STARLINK-3826,PAYLOAD,2023-05-04 13:14:07,15.08843297,0.000143,53.2166,188.4907,85.5333,274.5822,0.00014907,2.086e-05,0.0,0 STARLINK-3826,1 52347U 22045S   23124.55147749  .00002086  00000-0  14907-3 0  9998,2 52347  53.2166 188.4907 0001430  85.5333 274.5822 15.08843297 58750,6917.87,95.437,540.725,538.746,0.0
52347.0,STARLINK-3826,PAYLOAD,2023-05-04 21:11:03,15.08833988,0.0001464,53.2162,187.0041,89.6098,270.5062,4.0404e-05,3.55e-06,0.0,0 STARLINK-3826,1 52347U 22045S   23124.88268220  .00000355  00000-0  40404-4 0  9991,2 52347  53.2162 187.0041 0001464  89.6098 270.5062 15.08833988 58804,6917.899,95.438,540.777,538.751,0.0
52347.0,STARLINK-3826,PAYLOAD,2023-05-05 21:01:50,15.08839987,0.0001401,53.2149,182.5423,82.4935,277.6216,0.00011085,1.477e-05,0.0,0 STARLINK-3826,1 52347U 22045S   23125.87628413  .00001477  00000-0  11085-3 0  9993,2 52347  53.2149 182.5423 0001401  82.4935 277.6216 15.08839987 58955,6917.88,95.438,540.715,538.776,0.0
52347.0,STARLINK-3826,PAYLOAD,2023-05-06 11:20:19,15.08846497,0.0001288,53.2145,179.8657,82.8803,277.2335,0.00017696,2.53e-05,0.0,0 STARLINK-3826,1 52347U 22045S   23126.47244213  .00002530  00000-0  17696-3 0  9997,2 52347  53.2145 179.8657 0001288  82.8803 277.2335 15.08846497 59043,6917.861,95.437,540.617,538.835,0.0
52347.0,STARLINK-3826,PAYLOAD,2023-05-07 00:03:25,15.08826866,0.0001453,53.2148,177.4863,79.166,280.9496,-2.5248e-05,-6.9e-06,0.0,0 STARLINK-3826,1 52347U 22045S   23127.00237496 -.00000690  00000-0 -25248-4 0  9992,2 52347  53.2148 177.4863 0001453  79.1660 280.9496 15.08826866 59129,6917.921,95.438,540.791,538.78,0.0
52347.0,STARLINK-3826,PAYLOAD,2023-05-07 09:35:44,15.08829544,0.0001497,53.2156,175.7032,78.6094,281.5066,7.1013e-06,-1.75e-06,0.0,0 STARLINK-3826,1 52347U 22045S   23127.39981956 -.00000175  00000-0  71013-5 0  9990,2 52347  53.2156 175.7032 0001497  78.6094 281.5066 15.08829544 59182,6917.912,95.438,540.813,538.742,0.0
52347.0,STARLINK-3826,PAYLOAD,2023-05-07 20:43:25,15.08838833,0.0001346,53.2153,173.6194,85.8019,274.3127,5.6673e-05,6.14e-06,0.0,0 STARLINK-3826,1 52347U 22045S   23127.86349321  .00000614  00000-0  56673-4 0  9997,2 52347  53.2153 173.6194 0001346  85.8019 274.3127 15.08838833 59252,6917.884,95.438,540.68,538.818,0.0
52347.0,STARLINK-3826,PAYLOAD,2023-05-08 09:26:29,15.08870603,0.0001371,53.2151,171.2404,75.928,284.1865,-0.00026935,-4.576e-05,0.0,0 STARLINK-3826,1 52347U 22045S   23128.39339638 -.00004576  00000-0 -26935-3 0  9996,2 52347  53.2151 171.2404 0001371  75.9280 284.1865 15.08870603 59334,6917.787,95.436,540.6,538.703,0.0
52347.0,STARLINK-3826,PAYLOAD,2023-05-08 12:37:16,15.0884478,0.0001554,53.2156,170.647,78.3693,281.7474,0.00018918,2.724e-05,0.0,0 STARLINK-3826,1 52347U 22045S   23128.52588609  .00002724  00000-0  18918-3 0  9998,2 52347  53.2156 170.6470 0001554  78.3693 281.7474 15.08844780 59351,6917.866,95.437,540.806,538.656,0.0
52347.0,STARLINK-3826,PAYLOAD,2023-05-09 12:28:03,15.08859721,0.0001557,53.215,166.1866,76.1564,283.9602,0.00033771,5.094e-05,0.0,0 STARLINK-3826,1 52347U 22045S   23129.51948063  .00005094  00000-0  33771-3 0  9999,2 52347  53.2150 166.1866 0001557  76.1564 283.9602 15.08859721 59505,6917.82,95.436,540.762,538.608,0.0
52347.0,STARLINK-3826,PAYLOAD,2023-05-10 12:18:50,15.08846858,0.0001532,53.2147,161.7265,81.8026,278.314,-1.46e-05,-5.2e-06,0.0,0 STARLINK-3826,1 52347U 22045S   23130.51308279 -.00000520  00000-0 -14600-4 0  9992,2 52347  53.2147 161.7265 0001532  81.8026 278.3140 15.08846858 59652,6917.859,95.437,540.784,538.665,0.0
